{
  "type": "FeatureCollection",
  "features": [
    {
      "type": "Feature",
      "properties": {
        "norad_id": 37295,
        "name": "COSMOS 2251 DEB",
        "group": "cosmos-2251-debris",
        "lat": 55.262995285599274,
        "lon": -77.89151520301299,
        "alt_km": 640.4638940494215,
        "timestamp": "2025-12-25T03:55:56.764933+00:00",
        "meta_object_name": "COSMOS 2251 DEB",
        "meta_object_id": "1993-036BJK",
        "meta_epoch": "2025-12-22T00:17:34.421280",
        "meta_mean_motion": 14.65289136,
        "meta_eccentricity": 0.00439318,
        "meta_inclination": 74.0064,
        "meta_ra_of_asc_node": 263.7481,
        "meta_arg_of_pericenter": 80.1076,
        "meta_mean_anomaly": 280.5048,
        "meta_ephemeris_type": 0,
        "meta_classification_type": "U",
        "meta_norad_cat_id": 37295,
        "meta_element_set_no": 999,
        "meta_rev_at_epoch": 82440,
        "meta_bstar": 0.0005221723,
        "meta_mean_motion_dot": 2.826e-05,
        "meta_mean_motion_ddot": 0,
        "tle_line1": "1 37295U 93036BJK 25356.01220395  .00002826  00000+0  52217-3 0  9997",
        "tle_line2": "2 37295  74.0064 263.7481 0043931  80.1076 280.5048 14.65289136824402"
      },
      "geometry": {
        "type": "Point",
        "coordinates": [
          -77.89151520301299,
          55.262995285599274
        ]
      }
    },
    {
      "type": "Feature",
      "properties": {
        "norad_id": 37305,
        "name": "COSMOS 2251 DEB",
        "group": "cosmos-2251-debris",
        "lat": -18.794512369075207,
        "lon": -98.18133173707088,
        "alt_km": 790.521914107715,
        "timestamp": "2025-12-25T03:55:56.764943+00:00",
        "meta_object_name": "COSMOS 2251 DEB",
        "meta_object_id": "1993-036BJV",
        "meta_epoch": "2025-12-23T00:11:55.974336",
        "meta_mean_motion": 14.36169187,
        "meta_eccentricity": 0.00495961,
        "meta_inclination": 73.8701,
        "meta_ra_of_asc_node": 271.4675,
        "meta_arg_of_pericenter": 230.2466,
        "meta_mean_anomaly": 129.4312,
        "meta_ephemeris_type": 0,
        "meta_classification_type": "U",
        "meta_norad_cat_id": 37305,
        "meta_element_set_no": 999,
        "meta_rev_at_epoch": 67014,
        "meta_bstar": 0.00056579218,
        "meta_mean_motion_dot": 1.645e-05,
        "meta_mean_motion_ddot": 0,
        "tle_line1": "1 37305U 93036BJV 25357.00828674  .00001645  00000+0  56579-3 0  9996",
        "tle_line2": "2 37305  73.8701 271.4675 0049596 230.2466 129.4312 14.36169187670140"
      },
      "geometry": {
        "type": "Point",
        "coordinates": [
          -98.18133173707088,
          -18.794512369075207
        ]
      }
    },
    {
      "type": "Feature",
      "properties": {
        "norad_id": 37312,
        "name": "COSMOS 2251 DEB",
        "group": "cosmos-2251-debris",
        "lat": 65.72642977045321,
        "lon": -38.43332566274064,
        "alt_km": 744.5541080730791,
        "timestamp": "2025-12-25T03:55:56.764953+00:00",
        "meta_object_name": "COSMOS 2251 DEB",
        "meta_object_id": "1993-036BKC",
        "meta_epoch": "2025-12-24T19:07:49.554048",
        "meta_mean_motion": 14.46161233,
        "meta_eccentricity": 0.0018503,
        "meta_inclination": 74.0296,
        "meta_ra_of_asc_node": 181.6731,
        "meta_arg_of_pericenter": 283.7009,
        "meta_mean_anomaly": 76.2089,
        "meta_ephemeris_type": 0,
        "meta_classification_type": "U",
        "meta_norad_cat_id": 37312,
        "meta_element_set_no": 999,
        "meta_rev_at_epoch": 86338,
        "meta_bstar": 0.0004068,
        "meta_mean_motion_dot": 1.43e-05,
        "meta_mean_motion_ddot": 0,
        "tle_line1": "1 37312U 93036BKC 25358.79710132  .00001430  00000+0  40680-3 0  9998",
        "tle_line2": "2 37312  74.0296 181.6731 0018503 283.7009  76.2089 14.46161233863380"
      },
      "geometry": {
        "type": "Point",
        "coordinates": [
          -38.43332566274064,
          65.72642977045321
        ]
      }
    },
    {
      "type": "Feature",
      "properties": {
        "norad_id": 37316,
        "name": "COSMOS 2251 DEB",
        "group": "cosmos-2251-debris",
        "lat": -39.84091693819779,
        "lon": -17.834864709664735,
        "alt_km": 592.4759216159337,
        "timestamp": "2025-12-25T03:55:56.764963+00:00",
        "meta_object_name": "COSMOS 2251 DEB",
        "meta_object_id": "1993-036BKG",
        "meta_epoch": "2025-12-23T10:21:39.448512",
        "meta_mean_motion": 14.94918981,
        "meta_eccentricity": 0.00294951,
        "meta_inclination": 74.0191,
        "meta_ra_of_asc_node": 359.4944,
        "meta_arg_of_pericenter": 63.4834,
        "meta_mean_anomaly": 296.9369,
        "meta_ephemeris_type": 0,
        "meta_classification_type": "U",
        "meta_norad_cat_id": 37316,
        "meta_element_set_no": 999,
        "meta_rev_at_epoch": 86303,
        "meta_bstar": 0.0022174093,
        "meta_mean_motion_dot": 0.00024458,
        "meta_mean_motion_ddot": 0,
        "tle_line1": "1 37316U 93036BKG 25357.43170658  .00024458  00000+0  22174-2 0  9997",
        "tle_line2": "2 37316  74.0191 359.4944 0029495  63.4834 296.9369 14.94918981863037"
      },
      "geometry": {
        "type": "Point",
        "coordinates": [
          -17.834864709664735,
          -39.84091693819779
        ]
      }
    },
    {
      "type": "Feature",
      "properties": {
        "norad_id": 37320,
        "name": "COSMOS 2251 DEB",
        "group": "cosmos-2251-debris",
        "lat": 69.51905602164015,
        "lon": -36.244682210607394,
        "alt_km": 658.437048122215,
        "timestamp": "2025-12-25T03:55:56.764974+00:00",
        "meta_object_name": "COSMOS 2251 DEB",
        "meta_object_id": "1993-036BKL",
        "meta_epoch": "2025-12-22T20:16:00.405696",
        "meta_mean_motion": 14.78886663,
        "meta_eccentricity": 0.0046926,
        "meta_inclination": 74.0442,
        "meta_ra_of_asc_node": 198.3073,
        "meta_arg_of_pericenter": 283.335,
        "meta_mean_anomaly": 76.2596,
        "meta_ephemeris_type": 0,
        "meta_classification_type": "U",
        "meta_norad_cat_id": 37320,
        "meta_element_set_no": 999,
        "meta_rev_at_epoch": 66296,
        "meta_bstar": 0.000787018,
        "meta_mean_motion_dot": 5.877e-05,
        "meta_mean_motion_ddot": 0,
        "tle_line1": "1 37320U 93036BKL 25356.84444914  .00005877  00000+0  78702-3 0  9998",
        "tle_line2": "2 37320  74.0442 198.3073 0046926 283.3350  76.2596 14.78886663662961"
      },
      "geometry": {
        "type": "Point",
        "coordinates": [
          -36.244682210607394,
          69.51905602164015
        ]
      }
    },
    {
      "type": "Feature",
      "properties": {
        "norad_id": 37326,
        "name": "COSMOS 2251 DEB",
        "group": "cosmos-2251-debris",
        "lat": -70.45602205608866,
        "lon": -175.28951816859214,
        "alt_km": 733.4737911199818,
        "timestamp": "2025-12-25T03:55:56.764984+00:00",
        "meta_object_name": "COSMOS 2251 DEB",
        "meta_object_id": "1993-036BKS",
        "meta_epoch": "2025-12-18T14:41:59.918784",
        "meta_mean_motion": 14.6160351,
        "meta_eccentricity": 0.00547059,
        "meta_inclination": 74.0257,
        "meta_ra_of_asc_node": 323.4491,
        "meta_arg_of_pericenter": 90.7075,
        "meta_mean_anomaly": 270.0361,
        "meta_ephemeris_type": 0,
        "meta_classification_type": "U",
        "meta_norad_cat_id": 37326,
        "meta_element_set_no": 999,
        "meta_rev_at_epoch": 85569,
        "meta_bstar": 0.00040097011,
        "meta_mean_motion_dot": 2.005e-05,
        "meta_mean_motion_ddot": 0,
        "tle_line1": "1 37326U 93036BKS 25352.61249906  .00002005  00000+0  40097-3 0  9995",
        "tle_line2": "2 37326  74.0257 323.4491 0054705  90.7075 270.0361 14.61603510855692"
      },
      "geometry": {
        "type": "Point",
        "coordinates": [
          -175.28951816859214,
          -70.45602205608866
        ]
      }
    },
    {
      "type": "Feature",
      "properties": {
        "norad_id": 37330,
        "name": "COSMOS 2251 DEB",
        "group": "cosmos-2251-debris",
        "lat": 15.033424287277821,
        "lon": 86.95557491253695,
        "alt_km": 668.0119422212802,
        "timestamp": "2025-12-25T03:55:56.764994+00:00",
        "meta_object_name": "COSMOS 2251 DEB",
        "meta_object_id": "1993-036BKW",
        "meta_epoch": "2025-12-24T00:52:02.666208",
        "meta_mean_motion": 14.59569552,
        "meta_eccentricity": 0.00567424,
        "meta_inclination": 74.0177,
        "meta_ra_of_asc_node": 273.5222,
        "meta_arg_of_pericenter": 118.7622,
        "meta_mean_anomaly": 241.926,
        "meta_ephemeris_type": 0,
        "meta_classification_type": "U",
        "meta_norad_cat_id": 37330,
        "meta_element_set_no": 999,
        "meta_rev_at_epoch": 86533,
        "meta_bstar": 0.00027721204,
        "meta_mean_motion_dot": 1.317e-05,
        "meta_mean_motion_ddot": 0,
        "tle_line1": "1 37330U 93036BKW 25358.03614197  .00001317  00000+0  27721-3 0  9994",
        "tle_line2": "2 37330  74.0177 273.5222 0056742 118.7622 241.9260 14.59569552865338"
      },
      "geometry": {
        "type": "Point",
        "coordinates": [
          86.95557491253695,
          15.033424287277821
        ]
      }
    }
  ]
}